STARLINK-4212
1 52846U 22062S   24101.55495399  .00000490  00000+0  48861-4 0  9997
2 52846  53.2183 288.1781 0001730  84.7122 275.4068 15.08837744100885
STARLINK-2113
1 47392U 21005AV  24101.22452668  .00000568  00000+0  57019-4 0  9990
2 47392  53.0551 287.1464 0001368  87.3413 272.7733 15.06403144178793
STARLINK-5392
1 54794U 22175AN  24101.22373204 -.00000025  00000+0  15646-4 0  9990
2 54794  53.2183 287.2209 0001292  86.6111 273.5030 15.12112442 72495
STARLINK-5454
1 54774U 22175S   24100.52217282  .00001245  00000+0  96324-4 0  9999
2 54774  53.2156 287.4860 0001364  80.1829 279.9317 15.08840119 72428
STARLINK-30425
1 57850U 23141L   24101.53751778  .00826004  00000+0  31134-1 0  9999
2 57850  53.0842 287.2848 0007386 123.5810 236.5893 15.23889121 33431
STARLINK-3691
1 51960U 22025E   24101.51479238  .00002039  00000+0  16242-3 0  9990
2 51960  53.0489 288.8684 0001131  87.8915 272.2202 15.04768120116728
STARLINK-2071
1 47361U 21005N   24101.22084607  .00000861  00000+0  76700-4 0  9994
2 47361  53.0534 287.1626 0001796  84.1311 275.9883 15.06395828179136
STARLINK-4092
1 52838U 22062J   24101.51350961  .00000630  00000+0  57651-4 0  9992
2 52838  53.2159 288.3456 0001368  78.0010 282.1136 15.08846672100879
STARLINK-30414
1 57859U 23141V   24101.58335648  .02549649  00000+0  10698+0 0  9996
2 57859  53.1119 287.7833 0001019  73.3596 200.9948 15.19145150 33424
STARLINK-4188
1 52843U 22062P   24101.55031596 -.00006653  00000+0 -40000-3 0  9994
2 52843  53.2195 288.1925 0000463  85.5473 274.5572 15.08869728100882
STARLINK-30285
1 57840U 23141A   24101.25001157  .02517256  00000+0  89625-1 0  9992
2 57840  53.1111 288.4185 0001405  83.0803 263.3309 15.24820418 33407
STARLINK-4086
1 52833U 22062D   24101.53191521 -.00000027  00000+0  16370-4 0  9998
2 52833  53.2179 288.2739 0001125  81.0691 279.0429 15.08834420100383
STARLINK-5415
1 54796U 22175AQ  24100.52954150  .00001702  00000+0  12498-3 0  9992
2 54796  53.2162 287.5211 0001201  81.1683 278.9445 15.08838258 72421
STARLINK-4168
1 52845U 22062R   24101.48775890  .00004157  00000+0  27929-3 0  9990
2 52845  53.2198 288.5378 0001627  93.3518 266.7661 15.08818330100877
STARLINK-30435
1 57842U 23141C   24101.49371644  .00004040  00000+0  18875-3 0  9992
2 57842  53.0781 287.7290 0000732 262.4146  97.6767 15.22013854 33429
STARLINK-1421
1 45709U 20035BE  24101.58335648  .01150192  00000+0  22721-1 0  9998
2 45709  53.0544 287.4572 0001353  79.4169 322.8409 15.43910531213568
STARLINK-2055
1 47358U 21005K   24101.21252371  .00000395  00000+0  45401-4 0  9990
2 47358  53.0541 287.1906 0001275  91.4062 268.7073 15.06400444179139
STARLINK-31060
1 58782U 24011T   24101.25001157  .00038242  00000+0  14234-2 0  9991
2 58782  53.1608 287.0943 0000737  47.0870 310.9875 15.27146934 14517
STARLINK-30423
1 57843U 23141D   24101.54837492 -.00003643  00000+0 -14328-3 0  9996
2 57843  53.0825 287.3579 0000661 305.2016  54.8918 15.22023220 33430
STARLINK-2049
1 47356U 21005H   24100.93702362  .00001653  00000+0  12985-3 0  9994
2 47356  53.0533 288.4362 0001572  88.7825 271.3344 15.06401746179096
STARLINK-30292
1 57844U 23141E   24101.52349135  .00002477  00000+0  13300-3 0  9998
2 57844  53.1105 287.9619 0001099  95.5862 264.5259 15.18715528 33429
STARLINK-4036
1 52837U 22062H   24101.50983134  .00001823  00000+0  13256-3 0  9991
2 52837  53.2120 288.3709 0001270  88.5356 271.5782 15.08851884100384
STARLINK-2124
1 47402U 21005BF  24101.25032538  .00001318  00000+0  10737-3 0  9994
2 47402  53.0542 287.0300 0001415  88.8357 271.2794 15.06402346178805
STARLINK-4043
1 52836U 22062G   24101.51719354  .00001382  00000+0  10489-3 0  9997
2 52836  53.2164 288.3401 0001848  85.9364 274.1839 15.08843308100385
STARLINK-2123
1 47401U 21005BE  24100.90016299  .00000668  00000+0  63700-4 0  9996
2 47401  53.0521 288.6041 0001241  99.9766 260.1363 15.06400611178143
STARLINK-4187
1 52850U 22062W   24101.51451284  .00001546  00000+0  11522-3 0  9999
2 52850  53.2154 288.7057 0001621  86.5812 273.5365 15.08838862100875
STARLINK-30272
1 57860U 23141W   24101.52310021  .00019520  00000+0  94057-3 0  9993
2 57860  53.1138 287.9558 0000714  80.9202 279.1874 15.18756090 33440
STARLINK-30404
1 57853U 23141P   24101.54331277  .00040093  00000+0  19057-2 0  9998
2 57853  53.1136 288.0761 0002073  72.8786 287.2436 15.18842716 33428
STARLINK-2100
1 47380U 21005AH  24101.23557994 -.00002899  00000+0 -17574-3 0  9998
2 47380  53.0537 287.0987 0001377  96.2658 263.8488 15.06413325179132
STARLINK-3679
1 51973U 22025T   24100.79591325  .00000995  00000+0  85703-4 0  9993
2 51973  53.0541 288.2817 0001361  89.0981 271.0164 15.06397183115581
STARLINK-3694
1 51957U 22025B   24101.51493407 -.00003088  00000+0 -19736-3 0  9998
2 51957  53.0490 288.8537 0002169  82.8758 277.2477 15.04745513116747
STARLINK-31103
1 58780U 24011R   24100.90337108  .00065509  00000+0  19493-2 0  9996
2 58780  53.1613 288.4991 0006692 222.6951 137.3532 15.34119244 14452
STARLINK-2102
1 47382U 21005AK  24101.22821866  .00000823  00000+0  74167-4 0  9996
2 47382  53.0548 287.1288 0001557  87.0375 273.0792 15.06397038179127
STARLINK-30426
1 57848U 23141J   24101.21230041  .00024836  00000+0  10813-2 0  9991
2 57848  53.0748 288.8066 0003201 284.6344  75.4297 15.22100176 33382
